STARLINK-2022           
1 47643U 21012Z   23318.09952501  .00016972  00000+0  11546-2 0  9991
2 47643  53.0560 252.1096 0001639  95.3556 264.7620 15.06430762152146
